ORBCOMM FM20 [+]        
1 25416U 98046D   23249.05400800  .00000909  00000+0  37012-3 0  9995
2 25416  44.9966  12.5563 0001712 199.6332 160.4449 14.34356187310873
ORBCOMM FM16 [-]        
1 25417U 98046E   23248.52613944  .00001322  00000+0  50888-3 0  9998
2 25417  44.9966  12.3581 0004544 250.6297 109.4059 14.35009057310676
ORBCOMM FM15 [-]        
1 25418U 98046F   23249.06564475  .00001247  00000+0  48526-3 0  9995
2 25418  44.9998  13.3298 0003977 253.5360 106.5050 14.34777730310937
ORBCOMM FM14 [-]        
1 25419U 98046G   23248.42516823  .00001381  00000+0  53096-3 0  9996
2 25419  44.9985  15.7294 0003225 232.9608 171.8925 14.34874056310629
ORBCOMM FM13 [+]        
1 25420U 98046H   23248.49577884  .00001059  00000+0  42295-3 0  9990
2 25420  45.0001  19.0829 0005288 241.7659 118.2654 14.34366665310848
ORBCOMM FM21 [-]        
1 25475U 98053A   23248.58379710  .00000953  00000+0  38542-3 0  9998
2 25475  45.0091 102.7450 0000143  86.5082 273.5781 14.34390104304076
ORBCOMM FM22 [-]        
1 25476U 98053B   23248.84422413  .00000975  00000+0  39031-3 0  9995
2 25476  45.0088  99.6249 0001691 192.0851 167.9956 14.34733321304127
ORBCOMM FM23 [-]        
1 25477U 98053C   23249.03070230  .00001017  00000+0  40810-3 0  9999
2 25477  45.0093 103.0730 0000990 187.9782 172.1049 14.34365807304262
